CTC1_L_00185001-01
1 66172U 23153ZE  26070.40833333  .00000000  00000+0  00000-0 0  9997
2 66172  65.0000   0.0000 0000000   0.0000   0.0000 13.69880518    15
CTC1_L_00185001-02
1 66173U 26434QO  26070.40833333  .00000000  00000+0  00000-0 0  9993
2 66173  65.0000   0.0000 0000000   0.0000  90.0000 13.69880518    15
CTC1_L_00185001-03
1 66174U 23416YU  26070.40833333  .00000000  00000+0  00000-0 0  9991
2 66174  65.0000   0.0000 0000000   0.0000 180.0000 13.69880518    16
CTC1_L_00185001-04
1 66175U 22992IQ  26070.40833333  .00000000  00000+0  00000-0 0  9990
2 66175  65.0000   0.0000 0000000   0.0000 270.0000 13.69880518    17
CTC1_L_00185002-01
1 66176U 22977OO  26070.40833333  .00000000  00000+0  00000-0 0  9994
2 66176  65.0000  12.0000 0000000   0.0000  12.0000 13.69880518    15
CTC1_L_00185002-02
1 66177U 23214EO  26070.40833333  .00000000  00000+0  00000-0 0  9990
2 66177  65.0000  12.0000 0000000   0.0000 102.0000 13.69880518    16
CTC1_L_00185002-03
1 66178U 22654PT  26070.40833333  .00000000  00000+0  00000-0 0  9998
2 66178  65.0000  12.0000 0000000   0.0000 192.0000 13.69880518    16
CTC1_L_00185002-04
1 66179U 24098YU  26070.40833333  .00000000  00000+0  00000-0 0  9993
2 66179  65.0000  12.0000 0000000   0.0000 282.0000 13.69880518    17
CTC1_L_00185003-01
1 66180U 25386D   26070.40833333  .00000000  00000+0  00000-0 0  9996
2 66180  65.0000  24.0000 0000000   0.0000  24.0000 13.69880518    16
CTC1_L_00185003-02
1 66181U 25461RR  26070.40833333  .00000000  00000+0  00000-0 0  9991
2 66181  65.0000  24.0000 0000000   0.0000 114.0000 13.69880518    17
CTC1_L_00185003-03
1 66182U 22889SF  26070.40833333  .00000000  00000+0  00000-0 0  9993
2 66182  65.0000  24.0000 0000000   0.0000 204.0000 13.69880518    18
CTC1_L_00185003-04
1 66183U 23406BT  26070.40833333  .00000000  00000+0  00000-0 0  9990
2 66183  65.0000  24.0000 0000000   0.0000 294.0000 13.69880518    18
CTC1_L_00185004-01
1 66184U 24725HH  26070.40833333  .00000000  00000+0  00000-0 0  9996
2 66184  65.0000  36.0000 0000000   0.0000  36.0000 13.69880518    16
CTC1_L_00185004-02
1 66185U 26710QL  26070.40833333  .00000000  00000+0  00000-0 0  9993
2 66185  65.0000  36.0000 0000000   0.0000 126.0000 13.69880518    17
CTC1_L_00185004-03
1 66186U 24864RX  26070.40833333  .00000000  00000+0  00000-0 0  9992
2 66186  65.0000  36.0000 0000000   0.0000 216.0000 13.69880518    18
CTC1_L_00185004-04
1 66187U 23577NN  26070.40833333  .00000000  00000+0  00000-0 0  9993
2 66187  65.0000  36.0000 0000000   0.0000 306.0000 13.69880518    19
CTC1_L_00185005-01
1 66188U 25166RB  26070.40833333  .00000000  00000+0  00000-0 0  9990
2 66188  65.0000  48.0000 0000000   0.0000  48.0000 13.69880518    16
CTC1_L_00185005-02
1 66189U 23066UM  26070.40833333  .00000000  00000+0  00000-0 0  9998
2 66189  65.0000  48.0000 0000000   0.0000 138.0000 13.69880518    17
CTC1_L_00185005-03
1 66190U 25214WU  26070.40833333  .00000000  00000+0  00000-0 0  9997
2 66190  65.0000  48.0000 0000000   0.0000 228.0000 13.69880518    19
CTC1_L_00185005-04
1 66191U 26090CO  26070.40833333  .00000000  00000+0  00000-0 0  9991
2 66191  65.0000  48.0000 0000000   0.0000 318.0000 13.69880518    10
CTC1_L_00185006-01
1 66192U 23371OO  26070.40833333  .00000000  00000+0  00000-0 0  9991
2 66192  65.0000  60.0000 0000000   0.0000  60.0000 13.69880518    19
CTC1_L_00185006-02
1 66193U 23288MH  26070.40833333  .00000000  00000+0  00000-0 0  9999
2 66193  65.0000  60.0000 0000000   0.0000 150.0000 13.69880518    10
CTC1_L_00185006-03
1 66194U 25876EA  26070.40833333  .00000000  00000+0  00000-0 0  9995
2 66194  65.0000  60.0000 0000000   0.0000 240.0000 13.69880518    11
CTC1_L_00185006-04
1 66195U 26984ZS  26070.40833333  .00000000  00000+0  00000-0 0  9997
2 66195  65.0000  60.0000 0000000   0.0000 330.0000 13.69880518    12
CTC1_L_00185007-01
1 66196U 22616NQ  26070.40833333  .00000000  00000+0  00000-0 0  9996
2 66196  65.0000  72.0000 0000000   0.0000  72.0000 13.69880518    19
CTC1_L_00185007-02
1 66197U 26042YR  26070.40833333  .00000000  00000+0  00000-0 0  9994
2 66197  65.0000  72.0000 0000000   0.0000 162.0000 13.69880518    10
CTC1_L_00185007-03
1 66198U 23515QP  26070.40833333  .00000000  00000+0  00000-0 0  9997
2 66198  65.0000  72.0000 0000000   0.0000 252.0000 13.69880518    11
CTC1_L_00185007-04
1 66199U 26998MI  26070.40833333  .00000000  00000+0  00000-0 0  9996
2 66199  65.0000  72.0000 0000000   0.0000 342.0000 13.69880518    12
CTC1_L_00185008-01
1 66200U 22702G   26070.40833333  .00000000  00000+0  00000-0 0  9998
2 66200  65.0000  84.0000 0000000   0.0000  84.0000 13.69880518    11
CTC1_L_00185008-02
1 66201U 26017GQ  26070.40833333  .00000000  00000+0  00000-0 0  9992
2 66201  65.0000  84.0000 0000000   0.0000 174.0000 13.69880518    12
CTC1_L_00185008-03
1 66202U 25112YT  26070.40833333  .00000000  00000+0  00000-0 0  9998
2 66202  65.0000  84.0000 0000000   0.0000 264.0000 13.69880518    13
CTC1_L_00185008-04
1 66203U 25131IM  26070.40833333  .00000000  00000+0  00000-0 0  9990
2 66203  65.0000  84.0000 0000000   0.0000 354.0000 13.69880518    14
CTC1_L_00185009-01
1 66204U 24131GG  26070.40833333  .00000000  00000+0  00000-0 0  9990
2 66204  65.0000  96.0000 0000000   0.0000  96.0000 13.69880518    11
CTC1_L_00185009-02
1 66205U 23163AI  26070.40833333  .00000000  00000+0  00000-0 0  9995
2 66205  65.0000  96.0000 0000000   0.0000 186.0000 13.69880518    12
CTC1_L_00185009-03
1 66206U 25560NH  26070.40833333  .00000000  00000+0  00000-0 0  9999
2 66206  65.0000  96.0000 0000000   0.0000 276.0000 13.69880518    13
CTC1_L_00185009-04
1 66207U 22594KM  26070.40833333  .00000000  00000+0  00000-0 0  9994
2 66207  65.0000  96.0000 0000000   0.0000   6.0000 13.69880518    15
CTC1_L_00185010-01
1 66208U 25761OL  26070.40833333  .00000000  00000+0  00000-0 0  9994
2 66208  65.0000 108.0000 0000000   0.0000 108.0000 13.69880518    13
CTC1_L_00185010-02
1 66209U 22751WA  26070.40833333  .00000000  00000+0  00000-0 0  9991
2 66209  65.0000 108.0000 0000000   0.0000 198.0000 13.69880518    13
CTC1_L_00185010-03
1 66210U 22609AG  26070.40833333  .00000000  00000+0  00000-0 0  9995
2 66210  65.0000 108.0000 0000000   0.0000 288.0000 13.69880518    15
CTC1_L_00185010-04
1 66211U 25039HA  26070.40833333  .00000000  00000+0  00000-0 0  9996
2 66211  65.0000 108.0000 0000000   0.0000  18.0000 13.69880518    17
CTC1_L_00185011-01
1 66212U 24678XR  26070.40833333  .00000000  00000+0  00000-0 0  9995
2 66212  65.0000 120.0000 0000000   0.0000 120.0000 13.69880518    16
CTC1_L_00185011-02
1 66213U 23383HG  26070.40833333  .00000000  00000+0  00000-0 0  9998
2 66213  65.0000 120.0000 0000000   0.0000 210.0000 13.69880518    17
CTC1_L_00185011-03
1 66214U 26086EU  26070.40833333  .00000000  00000+0  00000-0 0  9992
2 66214  65.0000 120.0000 0000000   0.0000 300.0000 13.69880518    18
CTC1_L_00185011-04
1 66215U 23374EM  26070.40833333  .00000000  00000+0  00000-0 0  9990
2 66215  65.0000 120.0000 0000000   0.0000  30.0000 13.69880518    19
CTC1_L_00185012-01
1 66216U 26588UY  26070.40833333  .00000000  00000+0  00000-0 0  9991
2 66216  65.0000 132.0000 0000000   0.0000 132.0000 13.69880518    16
CTC1_L_00185012-02
1 66217U 23689CY  26070.40833333  .00000000  00000+0  00000-0 0  9991
2 66217  65.0000 132.0000 0000000   0.0000 222.0000 13.69880518    17
CTC1_L_00185012-03
1 66218U 23277BR  26070.40833333  .00000000  00000+0  00000-0 0  9995
2 66218  65.0000 132.0000 0000000   0.0000 312.0000 13.69880518    18
CTC1_L_00185012-04
1 66219U 24097BV  26070.40833333  .00000000  00000+0  00000-0 0  9997
2 66219  65.0000 132.0000 0000000   0.0000  42.0000 13.69880518    19
CTC1_L_00185013-01
1 66220U 25963AD  26070.40833333  .00000000  00000+0  00000-0 0  9992
2 66220  65.0000 144.0000 0000000   0.0000 144.0000 13.69880518    17
CTC1_L_00185013-02
1 66221U 24475AO  26070.40833333  .00000000  00000+0  00000-0 0  9990
2 66221  65.0000 144.0000 0000000   0.0000 234.0000 13.69880518    18
CTC1_L_00185013-03
1 66222U 25061LA  26070.40833333  .00000000  00000+0  00000-0 0  9993
2 66222  65.0000 144.0000 0000000   0.0000 324.0000 13.69880518    19
CTC1_L_00185013-04
1 66223U 23831PB  26070.40833333  .00000000  00000+0  00000-0 0  9997
2 66223  65.0000 144.0000 0000000   0.0000  54.0000 13.69880518    10
CTC1_L_00185014-01
1 66224U 22290MK  26070.40833333  .00000000  00000+0  00000-0 0  9996
2 66224  65.0000 156.0000 0000000   0.0000 156.0000 13.69880518    17
CTC1_L_00185014-02
1 66225U 22734SP  26070.40833333  .00000000  00000+0  00000-0 0  9990
2 66225  65.0000 156.0000 0000000   0.0000 246.0000 13.69880518    18
CTC1_L_00185014-03
1 66226U 25336NW  26070.40833333  .00000000  00000+0  00000-0 0  9992
2 66226  65.0000 156.0000 0000000   0.0000 336.0000 13.69880518    19
CTC1_L_00185014-04
1 66227U 25941TD  26070.40833333  .00000000  00000+0  00000-0 0  9995
2 66227  65.0000 156.0000 0000000   0.0000  66.0000 13.69880518    10
CTC1_L_00185015-01
1 66228U 25404GX  26070.40833333  .00000000  00000+0  00000-0 0  9990
2 66228  65.0000 168.0000 0000000   0.0000 168.0000 13.69880518    17
CTC1_L_00185015-02
1 66229U 26849QA  26070.40833333  .00000000  00000+0  00000-0 0  9995
2 66229  65.0000 168.0000 0000000   0.0000 258.0000 13.69880518    18
CTC1_L_00185015-03
1 66230U 23906GP  26070.40833333  .00000000  00000+0  00000-0 0  9998
2 66230  65.0000 168.0000 0000000   0.0000 348.0000 13.69880518    10
CTC1_L_00185015-04
1 66231U 22407XY  26070.40833333  .00000000  00000+0  00000-0 0  9994
2 66231  65.0000 168.0000 0000000   0.0000  78.0000 13.69880518    11
CTC1_L_00185016-01
1 66232U 23638FN  26070.40833333  .00000000  00000+0  00000-0 0  9992
2 66232  65.0000 180.0000 0000000   0.0000 180.0000 13.69880518    10
CTC1_L_00185016-02
1 66233U 23353CS  26070.40833333  .00000000  00000+0  00000-0 0  9997
2 66233  65.0000 180.0000 0000000   0.0000 270.0000 13.69880518    11
